GLOBALSTAR M057         
1 25943U 99058A   24156.76085726 -.00000128  00000+0 -31834-3 0  9997
2 25943  52.0005 339.3022 0001533 332.5984  27.4785 12.24787190120686
GLOBALSTAR M059         
1 25944U 99058B   24156.92353132 -.00000064  00000+0  27577-3 0  9992
2 25944  51.9987 147.7761 0000665 295.5760 140.5885 11.99962833528758
GLOBALSTAR M056         
1 25945U 99058C   24156.93483109 -.00000082  00000+0  66203-4 0  9992
2 25945  51.9932 159.3936 0000706 157.0612 274.8411 12.04776515117157
GLOBALSTAR M031         
1 25946U 99058D   24156.96619721 -.00000135  00000+0 -45246-3 0  9990
2 25946  51.9971  74.2112 0001604 109.6894 331.3321 12.16010350118651
GLOBALSTAR M039         
1 25961U 99062A   24156.94582362 -.00000092  00000+0  67248-4 0  9998
2 25961  51.9862 337.6885 0002222 213.8260 146.2465 12.62292961132572
GLOBALSTAR M034         
1 25962U 99062B   24156.75386958 -.00000150  00000+0 -11031-2 0  9994
2 25962  51.9882 272.4803 0013946  51.3805  96.3617 11.79428162 93858
GLOBALSTAR M029         
1 25963U 99062C   24156.97582726 -.00000068  00000+0  22451-3 0  9996
2 25963  51.9823  35.9951 0003265  89.8711 283.6921 11.99878707123843
GLOBALSTAR M061         
1 25964U 99062D   24156.58681995 -.00000095  00000+0 -23874-3 0  9993
2 25964  51.9794  91.9425 0006410 338.7079 192.2481 11.76762189 76728
